STARLINK-30973          
1 58713U 24002J   26068.66903906 -.00001638  00000+0 -43209-4 0  9994
2 58713  53.1592 229.9278 0001124  82.5186 277.5943 15.30180346122012
LYNK TOWER 5            
1 59121U 24043Z   26068.92489786  .00009048  00000+0  31902-3 0  9994
2 59121  97.5458 204.7305 0010406 234.6422 125.3846 15.29454506111860
